{"type": "FeatureCollection", "features": [ {"type": "Feature", "properties": {"norad_id": 66815, "name": "STARLINK-35985", "group": "last-30-days", "lat": 39.815106157600574, "lon": -58.101651611568215, "alt_km": 324.2638427832062, "timestamp": "2025-12-14T22:38:39.518364+00:00", "meta": {"OBJECT_NAME": "STARLINK-35985", "OBJECT_ID": "2025-278AA", "EPOCH": "2025-12-14T06:00:02.999808", "MEAN_MOTION": 15.8251603, "ECCENTRICITY": 0.00017726, "INCLINATION": 42.9969, "RA_OF_ASC_NODE": 242.6772, "ARG_OF_PERICENTER": 278.5335, "MEAN_ANOMALY": 158.4627, "EPHEMERIS_TYPE": 0, "CLASSIFICATION_TYPE": "U", "NORAD_CAT_ID": 66815, "ELEMENT_SET_NO": 999, "REV_AT_EPOCH": 329, "BSTAR": -0.0074652037, "MEAN_MOTION_DOT": -0.01429596, "MEAN_MOTION_DDOT": 0}, "tle": {"line1": "1 66815U 25278AA  25348.25003472 -.01429596  00000+0 -74652-2 0  9998", "line2": "2 66815  42.9969 242.6772 0001772 278.5335 158.4627 15.82516030  3295"}}, "geometry": {"type": "Point", "coordinates": [-58.101651611568215, 39.815106157600574]}}, {"type": "Feature", "properties": {"norad_id": 66816, "name": "STARLINK-36098", "group": "last-30-days", "lat": 36.163941578355846, "lon": -69.87400849907122, "alt_km": 324.0275751266099, "timestamp": "2025-12-14T22:38:39.518374+00:00", "meta": {"OBJECT_NAME": "STARLINK-36098", "OBJECT_ID": "2025-278AB", "EPOCH": "2025-12-14T06:00:02.999808", "MEAN_MOTION": 15.82700939, "ECCENTRICITY": 0.00017582, "INCLINATION": 42.9974, "RA_OF_ASC_NODE": 242.7043, "ARG_OF_PERICENTER": 274.7691, "MEAN_ANOMALY": 151.7123, "EPHEMERIS_TYPE": 0, "CLASSIFICATION_TYPE": "U", "NORAD_CAT_ID": 66816, "ELEMENT_SET_NO": 999, "REV_AT_EPOCH": 304, "BSTAR": -0.0071643363, "MEAN_MOTION_DOT": -0.01362664, "MEAN_MOTION_DDOT": 0}, "tle": {"line1": "1 66816U 25278AB  25348.25003472 -.01362664  00000+0 -71643-2 0  9998", "line2": "2 66816  42.9974 242.7043 0001758 274.7691 151.7123 15.82700939  3044"}}, "geometry": {"type": "Point", "coordinates": [-69.87400849907122, 36.163941578355846]}}, {"type": "Feature", "properties": {"norad_id": 66817, "name": "STARLINK-35995", "group": "last-30-days", "lat": 38.076192796403454, "lon": -64.33075599106837, "alt_km": 324.0873384461411, "timestamp": "2025-12-14T22:38:39.518384+00:00", "meta": {"OBJECT_NAME": "STARLINK-35995", "OBJECT_ID": "2025-278AC", "EPOCH": "2025-12-14T06:00:02.999808", "MEAN_MOTION": 15.82631782, "ECCENTRICITY": 0.00018062, "INCLINATION": 42.9974, "RA_OF_ASC_NODE": 242.6917, "ARG_OF_PERICENTER": 276.3967, "MEAN_ANOMALY": 155.1162, "EPHEMERIS_TYPE": 0, "CLASSIFICATION_TYPE": "U", "NORAD_CAT_ID": 66817, "ELEMENT_SET_NO": 999, "REV_AT_EPOCH": 320, "BSTAR": -0.0073015847, "MEAN_MOTION_DOT": -0.01408609, "MEAN_MOTION_DDOT": 0}, "tle": {"line1": "1 66817U 25278AC  25348.25003472 -.01408609  00000+0 -73016-2 0  9995", "line2": "2 66817  42.9974 242.6917 0001806 276.3967 155.1162 15.82631782  3200"}}, "geometry": {"type": "Point", "coordinates": [-64.33075599106837, 38.076192796403454]}}, {"type": "Feature", "properties": {"norad_id": 66818, "name": "STARLINK-35994", "group": "last-30-days", "lat": 37.22294110065369, "lon": -66.93260624209482, "alt_km": 324.17411519514735, "timestamp": "2025-12-14T22:38:39.518394+00:00", "meta": {"OBJECT_NAME": "STARLINK-35994", "OBJECT_ID": "2025-278AD", "EPOCH": "2025-12-14T06:00:02.999808", "MEAN_MOTION": 15.82648371, "ECCENTRICITY": 0.00017065, "INCLINATION": 42.9974, "RA_OF_ASC_NODE": 242.6975, "ARG_OF_PERICENTER": 268.7633, "MEAN_ANOMALY": 160.4612, "EPHEMERIS_TYPE": 0, "CLASSIFICATION_TYPE": "U", "NORAD_CAT_ID": 66818, "ELEMENT_SET_NO": 999, "REV_AT_EPOCH": 320, "BSTAR": -0.0072413781, "MEAN_MOTION_DOT": -0.0139918, "MEAN_MOTION_DDOT": 0}, "tle": {"line1": "1 66818U 25278AD  25348.25003472 -.01399180  00000+0 -72414-2 0  9990", "line2": "2 66818  42.9974 242.6975 0001706 268.7633 160.4612 15.82648371  3200"}}, "geometry": {"type": "Point", "coordinates": [-66.93260624209482, 37.22294110065369]}}, {"type": "Feature", "properties": {"norad_id": 66819, "name": "STARLINK-35989", "group": "last-30-days", "lat": 38.87439593942238, "lon": -61.6563503169781, "alt_km": 324.03248979990803, "timestamp": "2025-12-14T22:38:39.518404+00:00", "meta": {"OBJECT_NAME": "STARLINK-35989", "OBJECT_ID": "2025-278AE", "EPOCH": "2025-12-14T06:00:02.999808", "MEAN_MOTION": 15.82615785, "ECCENTRICITY": 0.00017629, "INCLINATION": 42.9975, "RA_OF_ASC_NODE": 242.6857, "ARG_OF_PERICENTER": 277.3503, "MEAN_ANOMALY": 156.4596, "EPHEMERIS_TYPE": 0, "CLASSIFICATION_TYPE": "U", "NORAD_CAT_ID": 66819, "ELEMENT_SET_NO": 999, "REV_AT_EPOCH": 320, "BSTAR": -0.0073477036, "MEAN_MOTION_DOT": -0.01415532, "MEAN_MOTION_DDOT": 0}, "tle": {"line1": "1 66819U 25278AE  25348.25003472 -.01415532  00000+0 -73477-2 0  9991", "line2": "2 66819  42.9975 242.6857 0001762 277.3503 156.4596 15.82615785  3204"}}, "geometry": {"type": "Point", "coordinates": [-61.6563503169781, 38.87439593942238]}}, {"type": "Feature", "properties": {"norad_id": 66820, "name": "KOMPSAT-7", "group": "last-30-days", "lat": -9.891444188972951, "lon": -63.891796274607614, "alt_km": 578.4540633953065, "timestamp": "2025-12-14T22:38:39.518447+00:00", "meta": {"OBJECT_NAME": "KOMPSAT-7", "OBJECT_ID": "2025-279A", "EPOCH": "2025-12-14T08:16:11.485632", "MEAN_MOTION": 14.98964573, "ECCENTRICITY": 0.00087469, "INCLINATION": 97.6415, "RA_OF_ASC_NODE": 294.1796, "ARG_OF_PERICENTER": 219.3592, "MEAN_ANOMALY": 140.6997, "EPHEMERIS_TYPE": 0, "CLASSIFICATION_TYPE": "U", "NORAD_CAT_ID": 66820, "ELEMENT_SET_NO": 999, "REV_AT_EPOCH": 189, "BSTAR": 0.00030325206, "MEAN_MOTION_DOT": 3.615e-05, "MEAN_MOTION_DDOT": 0}, "tle": {"line1": "1 66820U 25279A   25348.34457738  .00003615  00000+0  30325-3 0  9990", "line2": "2 66820  97.6415 294.1796 0008746 219.3592 140.6997 14.98964573  1890"}}, "geometry": {"type": "Point", "coordinates": [-63.891796274607614, -9.891444188972951]}}, {"type": "Feature", "properties": {"norad_id": 66821, "name": "STARLINK-35966", "group": "last-30-days", "lat": -69.41845218347865, "lon": 88.57374505518712, "alt_km": 357.2316092607043, "timestamp": "2025-12-14T22:38:39.518466+00:00", "meta": {"OBJECT_NAME": "STARLINK-35966", "OBJECT_ID": "2025-280A", "EPOCH": "2025-12-14T06:00:02.999808", "MEAN_MOTION": 15.74680717, "ECCENTRICITY": 0.00036868, "INCLINATION": 69.9951, "RA_OF_ASC_NODE": 194.5459, "ARG_OF_PERICENTER": 273.2588, "MEAN_ANOMALY": 25.0443, "EPHEMERIS_TYPE": 0, "CLASSIFICATION_TYPE": "U", "NORAD_CAT_ID": 66821, "ELEMENT_SET_NO": 999, "REV_AT_EPOCH": 314, "BSTAR": -0.013124538, "MEAN_MOTION_DOT": -0.01707073, "MEAN_MOTION_DDOT": 0}, "tle": {"line1": "1 66821U 25280A   25348.25003472 -.01707073  00000+0 -13125-1 0  9994", "line2": "2 66821  69.9951 194.5459 0003686 273.2588  25.0443 15.74680717  3141"}}, "geometry": {"type": "Point", "coordinates": [88.57374505518712, -69.41845218347865]}}, {"type": "Feature", "properties": {"norad_id": 66822, "name": "STARLINK-35958", "group": "last-30-days", "lat": -69.77064501382117, "lon": 93.94978973446345, "alt_km": 357.2562822355303, "timestamp": "2025-12-14T22:38:39.518479+00:00", "meta": {"OBJECT_NAME": "STARLINK-35958", "OBJECT_ID": "2025-280B", "EPOCH": "2025-12-14T06:00:02.999808", "MEAN_MOTION": 15.74676929, "ECCENTRICITY": 0.00036984, "INCLINATION": 69.9951, "RA_OF_ASC_NODE": 194.5441, "ARG_OF_PERICENTER": 270.4216, "MEAN_ANOMALY": 29.8156, "EPHEMERIS_TYPE": 0, "CLASSIFICATION_TYPE": "U", "NORAD_CAT_ID": 66822, "ELEMENT_SET_NO": 999, "REV_AT_EPOCH": 314, "BSTAR": -0.013196974, "MEAN_MOTION_DOT": -0.01715157, "MEAN_MOTION_DDOT": 0}, "tle": {"line1": "1 66822U 25280B   25348.25003472 -.01715157  00000+0 -13197-1 0  9996", "line2": "2 66822  69.9951 194.5441 0003698 270.4216  29.8156 15.74676929  3146"}}, "geometry": {"type": "Point", "coordinates": [93.94978973446345, -69.77064501382117]}}, {"type": "Feature", "properties": {"norad_id": 66823, "name": "STARLINK-35957", "group": "last-30-days", "lat": -69.95343888172494, "lon": 99.42460683339407, "alt_km": 357.3436116472367, "timestamp": "2025-12-14T22:38:39.518489+00:00", "meta": {"OBJECT_NAME": "STARLINK-35957", "OBJECT_ID": "2025-280C", "EPOCH": "2025-12-14T06:00:02.999808", "MEAN_MOTION": 15.74658959, "ECCENTRICITY": 0.00036848, "INCLINATION": 69.9949, "RA_OF_ASC_NODE": 194.5416, "ARG_OF_PERICENTER": 272.8262, "MEAN_ANOMALY": 29.3643, "EPHEMERIS_TYPE": 0, "CLASSIFICATION_TYPE": "U", "NORAD_CAT_ID": 66823, "ELEMENT_SET_NO": 999, "REV_AT_EPOCH": 314, "BSTAR": -0.013248369, "MEAN_MOTION_DOT": -0.0171985, "MEAN_MOTION_DDOT": 0}, "tle": {"line1": "1 66823U 25280C   25348.25003472 -.01719850  00000+0 -13248-1 0  9998", "line2": "2 66823  69.9949 194.5416 0003684 272.8262  29.3643 15.74658959  3147"}}, "geometry": {"type": "Point", "coordinates": [99.42460683339407, -69.95343888172494]}}, {"type": "Feature", "properties": {"norad_id": 66824, "name": "STARLINK-35896", "group": "last-30-days", "lat": -69.96602705970172, "lon": 104.90191693890014, "alt_km": 357.6569291275364, "timestamp": "2025-12-14T22:38:39.518501+00:00", "meta": {"OBJECT_NAME": "STARLINK-35896", "OBJECT_ID": "2025-280D", "EPOCH": "2025-12-14T06:00:02.999808", "MEAN_MOTION": 15.74644458, "ECCENTRICITY": 0.00034738, "INCLINATION": 69.9946, "RA_OF_ASC_NODE": 194.5392, "ARG_OF_PERICENTER": 270.2677, "MEAN_ANOMALY": 33.8916, "EPHEMERIS_TYPE": 0, "CLASSIFICATION_TYPE": "U", "NORAD_CAT_ID": 66824, "ELEMENT_SET_NO": 999, "REV_AT_EPOCH": 314, "BSTAR": -0.013486963, "MEAN_MOTION_DOT": -0.01745958, "MEAN_MOTION_DDOT": 0}, "tle": {"line1": "1 66824U 25280D   25348.25003472 -.01745958  00000+0 -13487-1 0  9992", "line2": "2 66824  69.9946 194.5392 0003473 270.2677  33.8916 15.74644458  3148"}}, "geometry": {"type": "Point", "coordinates": [104.90191693890014, -69.96602705970172]}}]}